{
  "type": "FeatureCollection",
  "features": [
    {
      "type": "Feature",
      "properties": {
        "norad_id": 41026,
        "name": "YAOGAN-28",
        "group": "resource",
        "lat": -73.19366495817069,
        "lon": -71.89050811541792,
        "alt_km": 507.6633238054774,
        "timestamp": "2025-12-21T14:40:47.568003+00:00",
        "meta_object_name": "YAOGAN-28",
        "meta_object_id": "2015-064A",
        "meta_epoch": "2025-12-21T07:15:54.511200",
        "meta_mean_motion": 15.24480612,
        "meta_eccentricity": 0.00126382,
        "meta_inclination": 97.2813,
        "meta_ra_of_asc_node": 132.854,
        "meta_arg_of_pericenter": 98.8031,
        "meta_mean_anomaly": 261.4638,
        "meta_ephemeris_type": 0,
        "meta_classification_type": "U",
        "meta_norad_cat_id": 41026,
        "meta_element_set_no": 999,
        "meta_rev_at_epoch": 56355,
        "meta_bstar": 0.00024761201,
        "meta_mean_motion_dot": 6.027e-05,
        "meta_mean_motion_ddot": 0,
        "tle_line1": "1 41026U 15064A   25355.30271425  .00006027  00000+0  24761-3 0  9990",
        "tle_line2": "2 41026  97.2813 132.8540 0012638  98.8031 261.4638 15.24480612563554"
      },
      "geometry": {
        "type": "Point",
        "coordinates": [
          -71.89050811541792,
          -73.19366495817069
        ]
      }
    },
    {
      "type": "Feature",
      "properties": {
        "norad_id": 41038,
        "name": "YAOGAN-29",
        "group": "resource",
        "lat": 71.23896194755004,
        "lon": -136.6602493628114,
        "alt_km": 613.1461793216813,
        "timestamp": "2025-12-21T14:40:47.568013+00:00",
        "meta_object_name": "YAOGAN-29",
        "meta_object_id": "2015-069A",
        "meta_epoch": "2025-12-21T07:43:16.957056",
        "meta_mean_motion": 14.8289238,
        "meta_eccentricity": 5.581e-05,
        "meta_inclination": 98.0209,
        "meta_ra_of_asc_node": 18.5212,
        "meta_arg_of_pericenter": 169.9941,
        "meta_mean_anomaly": 190.1284,
        "meta_ephemeris_type": 0,
        "meta_classification_type": "U",
        "meta_norad_cat_id": 41038,
        "meta_element_set_no": 999,
        "meta_rev_at_epoch": 54426,
        "meta_bstar": 6.6164414e-05,
        "meta_mean_motion_dot": 4.82e-06,
        "meta_mean_motion_ddot": 0,
        "tle_line1": "1 41038U 15069A   25355.32172404  .00000482  00000+0  66164-4 0  9990",
        "tle_line2": "2 41038  98.0209  18.5212 0000558 169.9941 190.1284 14.82892380544263"
      },
      "geometry": {
        "type": "Point",
        "coordinates": [
          -136.6602493628114,
          71.23896194755004
        ]
      }
    },
    {
      "type": "Feature",
      "properties": {
        "norad_id": 41167,
        "name": "KENT RIDGE 1",
        "group": "resource",
        "lat": -12.64467679341294,
        "lon": 88.2638314576394,
        "alt_km": 495.3491378907165,
        "timestamp": "2025-12-21T14:40:47.568024+00:00",
        "meta_object_name": "KENT RIDGE 1",
        "meta_object_id": "2015-077B",
        "meta_epoch": "2025-12-21T02:20:52.336608",
        "meta_mean_motion": 15.21694895,
        "meta_eccentricity": 0.0008535,
        "meta_inclination": 14.9784,
        "meta_ra_of_asc_node": 149.1191,
        "meta_arg_of_pericenter": 249.0242,
        "meta_mean_anomaly": 110.9166,
        "meta_ephemeris_type": 0,
        "meta_classification_type": "U",
        "meta_norad_cat_id": 41167,
        "meta_element_set_no": 999,
        "meta_rev_at_epoch": 55391,
        "meta_bstar": 0.00011767665,
        "meta_mean_motion_dot": 3.496e-05,
        "meta_mean_motion_ddot": 0,
        "tle_line1": "1 41167U 15077B   25355.09782797  .00003496  00000+0  11768-3 0  9995",
        "tle_line2": "2 41167  14.9784 149.1191 0008535 249.0242 110.9166 15.21694895553911"
      },
      "geometry": {
        "type": "Point",
        "coordinates": [
          88.2638314576394,
          -12.64467679341294
        ]
      }
    },
    {
      "type": "Feature",
      "properties": {
        "norad_id": 41194,
        "name": "GAOFEN-4",
        "group": "resource",
        "lat": -0.06089430012987145,
        "lon": 56.309916957259865,
        "alt_km": 35791.95069805295,
        "timestamp": "2025-12-21T14:40:47.568036+00:00",
        "meta_object_name": "GAOFEN-4",
        "meta_object_id": "2015-083A",
        "meta_epoch": "2025-12-19T15:27:26.627616",
        "meta_mean_motion": 1.00273138,
        "meta_eccentricity": 0.0002945,
        "meta_inclination": 0.1878,
        "meta_ra_of_asc_node": 81.7841,
        "meta_arg_of_pericenter": 93.4275,
        "meta_mean_anomaly": 250.8523,
        "meta_ephemeris_type": 0,
        "meta_classification_type": "U",
        "meta_norad_cat_id": 41194,
        "meta_element_set_no": 999,
        "meta_rev_at_epoch": 3672,
        "meta_bstar": 0,
        "meta_mean_motion_dot": -3.11e-06,
        "meta_mean_motion_ddot": 0,
        "tle_line1": "1 41194U 15083A   25353.64405819 -.00000311  00000+0  00000+0 0  9995",
        "tle_line2": "2 41194   0.1878  81.7841 0002945  93.4275 250.8523  1.00273138 36722"
      },
      "geometry": {
        "type": "Point",
        "coordinates": [
          56.309916957259865,
          -0.06089430012987145
        ]
      }
    },
    {
      "type": "Feature",
      "properties": {
        "norad_id": 41240,
        "name": "JASON-3",
        "group": "resource",
        "lat": 29.678859912151033,
        "lon": 153.850917724691,
        "alt_km": 1311.392616519136,
        "timestamp": "2025-12-21T14:40:47.568048+00:00",
        "meta_object_name": "JASON-3",
        "meta_object_id": "2016-002A",
        "meta_epoch": "2025-12-21T05:11:22.678944",
        "meta_mean_motion": 12.8762689,
        "meta_eccentricity": 0.00072334,
        "meta_inclination": 66.04,
        "meta_ra_of_asc_node": 140.0032,
        "meta_arg_of_pericenter": 271.3233,
        "meta_mean_anomaly": 88.6957,
        "meta_ephemeris_type": 0,
        "meta_classification_type": "U",
        "meta_norad_cat_id": 41240,
        "meta_element_set_no": 999,
        "meta_rev_at_epoch": 46433,
        "meta_bstar": -1.645428e-05,
        "meta_mean_motion_dot": -6.6e-07,
        "meta_mean_motion_ddot": 0,
        "tle_line1": "1 41240U 16002A   25355.21623471 -.00000066  00000+0 -16454-4 0  9993",
        "tle_line2": "2 41240  66.0400 140.0032 0007233 271.3233  88.6957 12.87626890464337"
      },
      "geometry": {
        "type": "Point",
        "coordinates": [
          153.850917724691,
          29.678859912151033
        ]
      }
    },
    {
      "type": "Feature",
      "properties": {
        "norad_id": 41335,
        "name": "SENTINEL-3A",
        "group": "resource",
        "lat": 4.246203187028816,
        "lon": -118.85359600651154,
        "alt_km": 804.9355033532065,
        "timestamp": "2025-12-21T14:40:47.568058+00:00",
        "meta_object_name": "SENTINEL-3A",
        "meta_object_id": "2016-011A",
        "meta_epoch": "2025-12-21T05:26:38.371200",
        "meta_mean_motion": 14.26733775,
        "meta_eccentricity": 8.994e-05,
        "meta_inclination": 98.6303,
        "meta_ra_of_asc_node": 60.1209,
        "meta_arg_of_pericenter": 94.6191,
        "meta_mean_anomaly": 265.5092,
        "meta_ephemeris_type": 0,
        "meta_classification_type": "U",
        "meta_norad_cat_id": 41335,
        "meta_element_set_no": 999,
        "meta_rev_at_epoch": 51268,
        "meta_bstar": 6.4208402e-05,
        "meta_mean_motion_dot": 1.12e-06,
        "meta_mean_motion_ddot": 0,
        "tle_line1": "1 41335U 16011A   25355.22683300  .00000112  00000+0  64208-4 0  9996",
        "tle_line2": "2 41335  98.6303  60.1209 0000899  94.6191 265.5092 14.26733775512687"
      },
      "geometry": {
        "type": "Point",
        "coordinates": [
          -118.85359600651154,
          4.246203187028816
        ]
      }
    },
    {
      "type": "Feature",
      "properties": {
        "norad_id": 41556,
        "name": "ZIYUAN 3-02 (ZY 3-02)",
        "group": "resource",
        "lat": 61.13707273403452,
        "lon": 55.985530050418575,
        "alt_km": 503.082670343917,
        "timestamp": "2025-12-21T14:40:47.568068+00:00",
        "meta_object_name": "ZIYUAN 3-02 (ZY 3-02)",
        "meta_object_id": "2016-033A",
        "meta_epoch": "2025-12-21T06:30:49.989024",
        "meta_mean_motion": 15.21167163,
        "meta_eccentricity": 0.00111146,
        "meta_inclination": 97.4036,
        "meta_ra_of_asc_node": 69.2965,
        "meta_arg_of_pericenter": 214.2397,
        "meta_mean_anomaly": 145.8124,
        "meta_ephemeris_type": 0,
        "meta_classification_type": "U",
        "meta_norad_cat_id": 41556,
        "meta_element_set_no": 999,
        "meta_rev_at_epoch": 53093,
        "meta_bstar": 0.00025114631,
        "meta_mean_motion_dot": 5.536e-05,
        "meta_mean_motion_ddot": 0,
        "tle_line1": "1 41556U 16033A   25355.27141191  .00005536  00000+0  25115-3 0  9995",
        "tle_line2": "2 41556  97.4036  69.2965 0011114 214.2397 145.8124 15.21167163530933"
      },
      "geometry": {
        "type": "Point",
        "coordinates": [
          55.985530050418575,
          61.13707273403452
        ]
      }
    }
  ]
}